[{"OBJECT_NAME":"KUIPER-00051","OBJECT_ID":"2025-134M","EPOCH":"2026-03-09T14:55:00.456384","MEAN_MOTION":14.83775882,"ECCENTRICITY":6.43e-5,"INCLINATION":51.9006,"RA_OF_ASC_NODE":226.0794,"ARG_OF_PERICENTER":101.5972,"MEAN_ANOMALY":258.5064,"EPHEMERIS_TYPE":0,"CLASSIFICATION_TYPE":"U","NORAD_CAT_ID":64511,"ELEMENT_SET_NO":999,"REV_AT_EPOCH":4016,"BSTAR":0.00067322,"MEAN_MOTION_DOT":5.404e-5,"MEAN_MOTION_DDOT":0},{"OBJECT_NAME":"SL-14 R\/B","OBJECT_ID":"1988-050B","EPOCH":"2026-03-09T13:00:47.013120","MEAN_MOTION":14.85381187,"ECCENTRICITY":0.00220331,"INCLINATION":82.5226,"RA_OF_ASC_NODE":98.5505,"ARG_OF_PERICENTER":48.4597,"MEAN_ANOMALY":311.8504,"EPHEMERIS_TYPE":0,"CLASSIFICATION_TYPE":"U","NORAD_CAT_ID":19211,"ELEMENT_SET_NO":999,"REV_AT_EPOCH":1828,"BSTAR":5.8576191e-5,"MEAN_MOTION_DOT":5.31e-6,"MEAN_MOTION_DDOT":0}]
